{"type":"Topology","arcs":[[[68051,93455],[-281,1],[-64,15],[-2777,-50],[-762,-16],[-990,-27]],[[63177,93378],[-435,-12],[-63,152],[-1136,2668],[-42,107],[-517,1578],[-34,132],[-123,1045]],[[60827,99048],[1757,-5],[48,-4],[944,0],[-751,667],[-197,293],[1515,-2],[1327,-4],[-32,-87],[114,-104],[39,-92],[-20,-37],[128,-127],[41,22],[64,-261],[-60,-45],[38,-137],[51,-40],[-80,-114],[64,-88],[86,-42],[-12,-114],[65,-113],[14,-229],[69,-54],[20,-121],[41,-39],[23,-163],[71,-117],[163,-398],[-28,-41],[104,-145],[62,-148],[-32,-11],[69,-109],[156,-140],[5,-63],[217,-195],[134,-184],[275,-286],[130,-118],[125,-153],[261,-187],[-112,-107],[-369,-9],[-5,-176],[28,-144],[119,-218],[-111,-9],[13,-133],[64,-134],[28,-180],[101,-120],[110,-255],[-2,-116],[95,-292],[257,-365]],[[63177,93378],[38,-993],[19,-571],[-1,-349]],[[63233,91465],[-3532,-91],[66,-1702],[5,-237],[-4159,-49]],[[55613,89386],[-89,318],[-61,177],[0,57],[-77,227],[-13,84],[-69,183],[-80,383],[-51,107],[-73,314],[-95,320],[-35,83],[-161,637],[-87,477],[-41,406]],[[54681,93159],[290,8],[-15,1001],[-7,885],[24,1593],[28,298],[24,1974],[1074,34],[565,14],[2892,86],[1271,-4]],[[71388,82008],[-709,-45],[-1743,-43],[-2609,-58],[-538,943],[-175,441],[-188,529],[-1913,-41]],[[63513,83734],[-76,2253],[3,55],[-29,799],[-13,48],[-23,700]],[[63375,87589],[5117,119],[400,11],[105,18],[248,71],[174,8],[43,61],[373,189]],[[69835,88066],[143,-72],[52,-64],[29,-102],[33,-892],[63,-256],[105,-221],[132,-227],[190,-256],[137,-154],[251,-233],[-92,37],[-61,-51],[112,-68],[58,67],[248,-202],[250,-157],[355,-93],[376,-138],[236,-65],[322,-62],[238,-14],[266,-31],[236,-75],[2,269],[64,271],[71,162],[91,155],[22,-4],[-102,-174],[-105,-292],[-28,-242],[23,-257],[41,-160],[109,-93],[55,-119],[-18,-105],[-56,-77],[-98,-61],[-394,-147],[-199,-104],[-148,-125],[-104,-122],[-166,-149],[-153,-95],[-195,-48],[-115,-7],[-241,20],[-274,63],[-169,80],[-36,136],[50,79],[112,29],[226,-129],[203,-32],[197,35],[208,87],[90,56],[132,120],[114,173],[3,71],[-44,81],[-99,61],[-220,6],[-1033,-146],[-108,-34],[-101,-83],[-49,-105],[20,-148],[126,-135],[36,-68],[-47,-482],[115,-662],[66,-278]],[[63513,83734],[-2186,-47],[-1379,-32],[-1386,-18]],[[58562,83637],[-178,437],[-139,198],[-544,579],[-192,223],[-391,400],[-84,70],[-112,178],[-114,113],[-131,160],[-159,265],[-85,188],[-64,291],[-51,131]],[[56318,86870],[-103,345],[-10,91],[-82,247],[-11,82],[-157,582],[-34,91],[-107,384],[-143,442],[-58,252]],[[63233,91465],[35,1],[35,-1050],[-23,-70],[62,-1776],[21,-34],[15,-442],[-19,-52],[16,-453]],[[63731,76017],[-2260,-45]],[[61471,75972],[-53,140],[-115,180],[-176,45],[-189,19],[-104,27],[-113,62],[-207,230],[-49,96],[-156,165],[-75,54]],[[60234,76990],[-120,85],[-379,55],[-82,68],[-73,130],[-83,222],[-104,145],[-205,112],[-109,80],[-202,192],[-109,203],[-91,128],[-198,331],[-226,1005],[-4,33]],[[58249,79779],[-5,85],[-114,499],[-46,290],[17,102],[234,469],[68,121],[200,284],[47,259],[-7,188],[16,135],[9,486],[-62,392],[-44,548]],[[63513,83734],[33,-942],[-2,-83],[31,-869],[40,-1463],[21,-440],[-26,-64],[18,-122],[34,-917],[16,-565],[18,-378],[29,-910],[-29,-1],[35,-963]],[[71388,82008],[106,-315],[25,-3],[64,-188],[249,-597],[185,-417],[132,-271],[87,-153],[313,-440],[372,-426],[372,-368],[41,-69],[-37,-71],[-116,-8],[-57,53],[-44,139],[-51,51],[-101,28],[-189,-84],[-99,16],[-68,73],[-191,436],[34,40],[-145,203],[-305,99],[-46,29],[-180,3],[-149,50],[-1,47],[-184,224],[-202,119],[-62,-39],[58,-86],[449,-425],[-39,-105],[18,-35],[-69,-39],[-15,-96],[217,-337],[61,-19],[116,-108],[82,-159],[28,-286],[35,-76],[174,-225],[121,-124],[20,118],[51,-7],[-18,-125],[233,7],[10,-44],[71,27],[121,116],[48,143],[18,193],[59,47],[-2,71],[109,-62],[36,-74],[1,-253],[75,-272],[139,-338],[150,-182],[-14,-53],[59,-187],[22,-167],[92,-172],[245,-336],[64,-65],[-19,-119],[-58,-51],[-145,-15],[-13,-88],[-90,-16]],[[73641,76145],[-178,11],[-63,80],[-263,-8],[-75,20],[-115,-49],[-361,11],[-265,19],[-646,-14],[-2340,-67],[-4103,-101],[-1501,-30]],[[73641,76145],[0,-36],[129,-6],[103,-66],[43,-104],[-69,-287],[-3,-209],[22,-153],[54,-190],[72,-137],[-51,-23],[198,-241],[47,-132],[-24,-129],[-41,18],[-94,-110],[23,-283],[28,-169],[44,-146],[216,-193],[158,87],[-220,-148],[-38,-62],[181,-261],[35,-69],[185,100],[13,-12],[-292,-145],[62,-140],[175,-206],[149,65],[-246,-136],[-10,-26],[124,-161],[130,-138],[132,66],[-263,-174],[79,-101],[119,-99],[92,-106],[157,96],[-182,-136],[126,-139],[117,-59],[191,-184],[237,-171],[181,-96],[201,-61],[166,-11],[152,21],[120,50],[71,-52],[-114,-110],[-115,-48],[-327,-58],[-156,-85],[-277,-241]],[[75451,70599],[-463,-54],[-39,79],[-80,-96],[-63,-17],[-1146,-31],[-735,-5],[-1711,-38],[-658,-29],[-908,-21],[-1667,-42],[-259,-5]],[[67722,70340],[-17,77],[-163,459],[-30,162],[-88,180],[-139,157],[-140,116],[-153,79],[-254,175],[-96,15],[-175,-70],[-138,-87],[-90,-28],[-142,33]],[[66097,71608],[-66,72],[-135,439],[-75,115],[-162,157],[-72,90],[-179,289],[-211,224],[-184,303],[-64,37],[-274,63],[-329,-12],[-182,45],[-122,66],[-386,313],[-118,103],[-51,118],[-25,345],[-92,136],[-215,149],[-166,95],[-303,112],[-458,114],[-33,38],[-235,536],[-322,200],[-167,197],[0,20]],[[75451,70599],[-47,-40],[-5,-150],[-83,-122],[-23,-151],[33,-338],[53,-268],[52,-139],[252,-771],[-36,-8],[134,-85],[210,-230],[84,-118],[20,-94],[311,-76],[155,-49],[165,-121],[312,-497],[182,-302],[203,-312],[354,-582],[295,-406],[269,77],[126,-22],[434,767],[36,8],[481,12],[150,-6],[1183,41],[20,-39],[20,-770],[-14,-13],[-1783,-44],[9,-245],[2120,54],[76,13],[3,-46],[485,13],[8,-218],[-487,-13],[2,-80],[-78,9],[-2064,-51],[17,-426]],[[79085,64761],[-15,-23],[-402,-4],[-33,114],[-19,235],[-507,-16],[-14,-35],[-187,-14],[-2,41],[-272,-7],[-352,-24],[-197,19],[-24,-27],[-459,5],[1,-76],[286,-2],[1017,23],[408,5],[27,-18],[12,-140],[-337,-326],[-309,2],[-655,-34],[-762,86],[-361,45],[-214,17],[-101,-24],[-254,21],[-135,-61],[-380,-272],[-83,-39],[-398,-27],[-358,0],[-346,11],[-272,-3],[-96,15],[-440,-25],[-85,-29],[-307,-210],[-75,-86]],[[72385,63878],[-194,129],[-90,114],[-147,507]],[[71954,64628],[-18,39],[-298,372],[-220,370],[-211,216],[-119,90],[-146,85],[-136,194],[-34,624],[-49,160],[-110,119],[-341,41],[-379,27],[-213,30],[-145,57],[-353,290],[-118,86],[-182,89],[-110,9],[-462,105],[-210,74],[-121,94],[-67,138],[-6,60],[-71,185],[-209,204],[-197,297],[-33,136],[27,166],[96,734],[58,172],[-416,-8],[65,207],[479,181],[17,69]],[[31777,93950],[-4,-1440],[-838,3],[-8,451],[-138,-1],[-2019,-67],[-478,-18]],[[28292,92878],[3,1923],[8,1914],[363,10],[-2,145],[-87,-3],[0,964],[-277,-9],[-1,820],[3492,103],[-5,-1399],[-9,-3396]],[[38155,93078],[-675,-7],[-1,-328],[675,-332],[533,-271],[-30,-2897],[-2311,-14],[-37,-3706]],[[36309,85523],[-2281,-34],[-1179,-14],[-3,-126],[-1100,-13],[13,1303],[-4,355],[-54,0],[-2294,-78],[-2,-959],[-484,-17],[-1,691],[-110,0],[6,265],[-1749,-59],[0,-235],[-1189,-29],[0,236],[-404,-9],[-1,263],[-51,-1],[0,120],[-715,-19]],[[24707,87163],[3,1120],[-13,1813]],[[24697,90096],[3065,-471],[98,-13],[260,2277],[81,558],[91,431]],[[31777,93950],[326,8],[21,169],[1005,16],[-1,-177],[340,1],[44,-233],[558,8],[2,247],[1420,18],[124,-153],[108,57]],[[35724,93911],[46,-37],[210,-72],[242,-139],[120,-5],[137,49],[344,-26],[146,50],[82,61],[83,15],[241,-47],[82,81],[28,184],[179,420],[124,97],[125,-22],[108,-128],[61,-205],[25,-372],[51,-289],[-21,-260],[18,-188]],[[25506,89376],[-89,-24],[-1,-239],[-352,0],[-2,-403],[177,2],[-1,-82],[-177,-3],[0,-90],[1487,35],[41,-72],[1,-276],[146,2],[0,-44],[-146,-2],[15,-180],[-257,-5],[2,-77],[-82,-20],[5,-193],[103,2],[2,-99],[-957,-23],[1,-257],[2192,52],[202,1857],[-424,-9],[9,-292],[-683,-15],[-13,509],[-93,-19],[-1045,-22],[-61,-13]],[[44745,85326],[-1888,-37],[-47,2],[-144,-75],[-816,49],[-643,-8],[-9,240],[-2269,-46],[-70,-5],[-2254,-43]],[[36605,85403],[-296,-6],[0,126]],[[38155,93078],[29,-122],[67,-58],[177,10],[148,100],[227,-40],[79,55],[87,11],[134,-131],[68,-17],[150,28],[179,64],[211,14],[249,-45],[181,-77],[106,-123],[19,-206],[-91,-187],[-127,-125],[-122,-75],[-208,-66],[-45,-51],[-4,-86],[70,-204],[125,-148],[257,-63],[149,-6],[85,-70],[-24,-59],[-109,-35],[-76,-167],[6,-71],[74,-122],[67,-60],[153,-65],[241,-21],[244,-46],[123,-5],[74,77],[8,153],[162,98],[222,39],[247,-84],[150,-115],[87,12],[39,63],[175,30],[103,123],[120,-27],[14,-76],[110,-252],[-22,-91],[-114,-62],[-36,-64],[55,-79],[64,-29],[163,20],[110,61],[384,-772],[72,-196],[155,-358],[35,2],[715,-1495],[-64,44],[16,-623],[27,-686],[548,11],[23,-45],[16,-231],[33,-931]],[[50928,93106],[-338,-474],[-305,-471],[-638,-955],[-239,-4],[-282,-429],[-53,-64],[-525,-287],[-452,-223],[32,-954],[-1124,-34],[-21,25],[-450,-18],[-474,-6],[-35,118],[-72,94],[-133,60],[-66,3],[82,-2205]],[[45835,87282],[46,-1485],[85,-287],[-50,-161]],[[45916,85349],[-1171,-23]],[[35724,93911],[1944,1038],[-184,155],[-125,145],[-1307,1675],[2253,11],[25,416],[6,496],[508,-12],[-12,-900],[882,-2],[725,-1520],[97,48],[189,-399],[315,-159],[33,-6],[459,-237],[78,109],[-497,254],[12,956],[1381,-5],[-36,-1251],[-21,-235],[-73,-257],[200,-97],[1673,-857],[369,-193],[1129,2],[1722,1],[2837,13],[622,6]],[[56318,86870],[-178,106],[-582,154],[-208,38],[-155,-7],[-149,-35],[-236,-80],[-189,-103],[-116,-210],[-120,-144],[-261,-108],[-184,-44],[-391,-15],[-128,43],[-447,265],[-155,65],[-241,124],[-201,67],[-287,34],[-247,92],[-181,125],[-158,170],[-202,76],[-149,29],[-131,-1],[-163,-65],[-93,-82],[-221,-4],[33,-965],[-882,-15],[-16,461],[-37,19],[-258,-5],[-17,484],[-1877,-33],[-907,-10],[-749,-14]],[[50928,93106],[1867,19],[1104,16],[782,18]],[[58562,83637],[-3269,-44],[-5063,-98],[-1958,1473],[-15,422],[-2341,-41]],[[45916,85349],[1,-250],[27,-679],[10,-73],[101,-224],[-174,23],[195,-65],[32,-88],[-49,-70],[160,-191],[495,-303],[-487,-8],[539,-1118],[158,-353],[213,-444],[56,0],[40,-1448],[25,-956],[19,-487],[-170,-4],[20,-486],[176,4],[15,-479]],[[47318,77650],[-16,0]],[[47302,77650],[-1064,-23],[-3796,-74],[-3258,-66]],[[39184,77487],[-86,1982],[-78,1881],[-79,-3],[-2254,-46],[-26,695],[-10,149],[-32,788],[-5,298]],[[36614,83231],[-25,655],[-39,162],[64,44],[2,1024],[-11,287]],[[58249,79779],[-1374,-21],[-349,-1],[-942,-10],[-4775,-98],[68,-1925],[-1916,-40]],[[48961,77684],[-1643,-34]],[[39184,77487],[-1855,-36],[-1616,-37]],[[35713,77414],[-906,-22],[-2904,-62],[36,-922]],[[31939,76408],[-122,-1],[-2207,-63],[-38,959],[-2246,-61],[-151,-1],[-1584,-43],[-381,-12]],[[25210,77186],[3,45],[-48,993],[-32,741],[-24,129],[-299,-10],[-58,1474],[-22,983],[-2,999],[-9,405]],[[24719,82945],[959,25],[143,-626],[69,-371],[1,-429],[11,-497],[2405,79],[3370,110],[72,-1],[-7,291],[180,95],[2804,1508],[126,51],[571,19],[871,20],[320,12]],[[36078,71933],[-504,162],[-859,340],[-1,27],[-1950,773],[-351,125],[-358,102]],[[32055,73462],[-116,2946]],[[35713,77414],[55,-1447],[-25,0],[57,-1644],[75,-2001],[44,-204],[106,-144],[53,-41]],[[47558,71040],[-1117,145],[1,-21],[-410,45],[-1759,229],[-191,4],[2,-23],[-391,93],[-414,83],[-871,113],[-220,24],[-337,20],[-279,2],[-4414,-96],[-169,4],[-198,23],[-236,55],[-367,137],[-110,56]],[[47302,77650],[158,-3768],[74,-2204],[24,-638]],[[49874,75771],[913,-1915],[223,4],[10,-310],[72,-173],[-151,-3],[92,-202],[26,-764],[415,9],[198,-419],[37,-61],[-74,-1],[27,-85],[15,-396],[219,4],[193,-462]],[[52089,70997],[-395,-6],[-45,-10],[-538,-1],[-2452,-48],[-491,22],[-536,67],[-74,19]],[[48961,77684],[58,-119],[855,-1794]],[[60234,76990],[25,-933],[9,-105],[-2085,-35],[-454,-5],[-2035,-29],[-185,1],[-1709,-37],[-1881,-34],[-1454,-31],[-591,-11]],[[66097,71608],[-46,-32],[-504,-247],[-208,-64],[-149,-16],[-376,-10],[-291,9],[-1745,-44],[-4,144],[-1167,-33],[10,-274],[-177,125],[-1039,-24],[-2287,-37],[-1,26],[-272,-15],[-893,-14]],[[56948,71102],[-82,-28],[-1081,-18],[-40,-29],[-2298,-44],[0,23],[-530,5],[-828,-14]],[[59494,64313],[-867,-16],[-350,32],[-1133,-22],[1,-16],[-587,-4],[-1,38],[-802,-17],[-335,-15],[-2682,-54],[-265,-2]],[[52473,64237],[-771,-19],[-104,8],[1,-55],[-292,-3],[-1,43],[-427,2],[-228,-16],[-2231,-43],[-628,-9]],[[47792,64145],[-30,762],[-15,201],[40,0],[-150,1211],[34,123],[-13,111],[-15,489],[-22,-1],[-30,190],[-5,300],[42,1],[-67,2224],[1,537],[12,259],[-16,488]],[[56948,71102],[36,-991],[-1215,-23],[-9,-144],[103,-2743],[1127,18],[23,-746],[-84,37],[9,-255],[393,9],[920,14],[11,-349],[1199,-522],[33,-1094]],[[71954,64628],[-314,-12],[-32,9],[-841,-18],[4,-119],[-774,-9],[-5,127],[-1372,-28],[-365,-2],[-993,-21],[-1456,-27],[-924,-9],[-673,-15],[-3385,-83],[-150,16],[0,-59],[-146,-3],[-342,-63]],[[60186,64312],[-692,1]],[[47792,64145],[116,-2886],[166,1],[38,-963],[-166,-5],[36,-943],[19,-191]],[[48001,59158],[37,-794],[-51,-1]],[[47987,58363],[-1217,-24],[-1904,-43],[-2612,-57],[-138,-5],[-2285,-48],[-39,1003],[-6,392],[-16,166],[-21,432],[-24,685],[-41,1015],[-105,2861],[-187,5027],[-1512,-29],[-267,-2],[-1633,-30],[-2437,-49],[-586,-9],[-758,-28],[-40,934],[-103,2831],[-1,77]],[[52692,59425],[13,-339],[-1211,-23],[-5,148],[-1741,-33],[-27,523],[-1233,-387],[-487,-156]],[[52473,64237],[20,-718],[26,-769],[22,-343],[41,-1057],[-17,-26],[11,-291],[56,-245],[14,-179],[46,-1184]],[[60186,64312],[-344,-112],[-186,-115],[-102,-118],[-68,-188],[12,-462],[-165,-7],[29,-813],[7,-60],[157,3],[24,-718],[-5,0],[89,-1926],[-19,-27],[-5,-187],[19,-267]],[[59629,59315],[-1085,-25],[-136,3],[-2256,-42],[-10,243],[-59,2],[-2442,-49],[-407,0],[-17,-9],[-525,-13]],[[72385,63878],[-40,-173],[-34,-340],[-50,-293],[-29,-575],[3,-171],[47,-343],[80,-254],[29,-212],[81,-221],[122,-193],[128,-141],[56,-140],[49,-185],[108,-530],[93,-535],[87,-694]],[[73115,58878],[37,-951],[14,-215],[8,-506],[16,-425],[-137,-314],[-14,-126]],[[73039,56341],[-205,0],[-697,-21],[-25,622],[-2957,-66],[-2141,-51],[-1323,-33],[-933,-18],[-780,-19],[-285,7],[-423,-36],[-431,-82],[-171,-22],[-655,-46],[-837,-78],[-236,-52],[-7,251],[-535,-11]],[[60398,56686],[-34,45],[-4,432],[23,1],[-20,506],[-145,190],[-478,733],[67,2],[-89,129],[-66,236],[-23,355]],[[60398,56686],[15,-626]],[[60413,56060],[-1793,-457],[-45,72],[-1716,-39],[16,-436],[-213,-52],[-1750,-28],[-24,2],[17,-413],[-338,-81],[-2321,-43],[18,-587],[-2601,-662],[-1249,-315],[-225,-43]],[[48189,52978],[-56,1522],[-80,1931],[-66,1932]],[[60618,50198],[-1856,-661],[-278,-95],[-62,53],[-284,-125],[-613,-219],[-903,-281],[-104,-21],[9,-180],[-1290,-459],[-1042,-369]],[[54195,47841],[-2,75],[-2420,-861],[-2926,-1038],[-415,-149]],[[48432,45868],[-7,38],[-23,864]],[[48402,46770],[39,1],[-53,1932],[-57,1930],[-29,0],[-17,482],[-29,0],[-67,1863]],[[60413,56060],[38,-959],[40,-1316],[64,-944],[36,-2057],[-5,-55],[17,-502],[15,-29]],[[73039,56341],[-78,-208],[-158,-172],[-312,-257],[-372,-204],[-83,-75],[-223,-345],[-189,-317],[-244,-356],[-108,-114],[-161,-89],[-162,-51]],[[70949,54153],[-213,-24],[-229,-11],[-227,-47],[-439,-160],[-236,-60],[-326,-26],[-377,-82],[-127,-15],[-1046,-214],[-263,24],[-502,-413],[-13,32],[-205,-131],[-431,-226],[-103,-108],[-98,-343],[-151,-289],[27,-124],[66,-129],[12,-317],[61,-130]],[[66129,51360],[-351,-225],[-290,-150],[-300,-92],[-244,-40],[-309,-12],[-1,55],[-961,-25],[-990,-31],[-172,-15],[-239,-45],[-235,-76],[-747,-262],[-672,-244]],[[79085,64761],[428,-5],[11,-184],[33,-9],[661,16],[-92,-33],[1,-56],[622,14],[0,-29],[-1261,-33],[-486,-60],[-19,-233],[-4,-796],[-656,-10],[-4,-102],[-35,-87],[-111,-109],[-199,-92],[-108,-21],[-189,-8],[-127,-35],[-104,-106],[-14,-146],[178,2],[10,-224],[-181,-4],[7,-207],[20,1],[14,-517],[8,-1],[31,-477],[6,-276],[-11,-319],[14,-475],[-19,-1],[25,-811],[84,-40],[123,-116]],[[77741,59172],[-761,-89],[-99,-129],[-61,9],[-1533,-38],[-1028,-21],[-878,-23],[-266,-3]],[[79287,52937],[-65,152],[-519,-4],[-196,-28],[-621,-4],[2,-15],[-231,-6],[-56,17],[-97,127],[-297,20],[-2706,-63]],[[74501,53133],[-11,514],[-17,367],[-34,1056],[-170,-2],[-12,111],[-41,1185],[-925,-22],[-252,-1]],[[77741,59172],[146,6],[143,46],[201,1],[168,-83],[44,-62],[19,-114],[-82,-143],[1,-57],[485,11],[17,9],[677,16],[120,83],[96,20],[169,-37],[116,-129],[5,-114],[-97,-132],[3,-234],[-59,-3],[-10,56],[-82,62],[-149,-96],[-63,-136],[13,-136],[134,-379],[51,-54],[179,-52],[18,-509],[-208,-7],[-56,-27],[89,-1144],[43,-587],[20,-13],[-536,-54],[-134,22],[-127,106],[-19,86],[130,762],[-141,209],[-17,126],[26,121],[-48,94],[-98,94],[28,117],[-17,88],[-58,33],[-3,117],[78,53],[13,146],[94,200],[58,301],[-29,212],[-53,143],[-101,181],[-28,144],[-522,-10],[6,-149],[-22,2],[-128,-341],[-30,-143],[1,-160],[41,-127],[75,-152],[95,-112],[4,-145],[83,-50],[6,-121],[-61,-50],[59,-191],[11,-158],[-89,-46],[-70,-82],[-48,-153],[2,-171],[46,-160],[55,-95],[95,-88],[178,-121],[89,-105],[41,-255],[92,-263],[110,-169],[170,-222],[47,-96],[12,-143],[-78,-464],[15,-164],[46,-124],[175,-253],[32,-74],[6,-128],[-27,-76],[-107,-156],[-33,-83]],[[74501,53133],[-190,-5],[92,-2573],[43,-1280],[135,2],[23,-883],[-37,-82],[39,-964]],[[74606,47348],[-92,-2]],[[74514,47346],[-1101,-24]],[[73413,47322],[-506,419],[-25,51],[-14,483],[-51,49],[-56,1779],[10,101],[153,3],[-15,483],[-119,-3],[-15,481],[24,0],[-47,1447],[-425,-10],[-22,679],[-280,48],[-109,-14],[-386,-8],[-62,214],[29,45],[-169,218],[190,4],[1,19],[-151,193],[-234,-108],[-107,128],[-78,130]],[[79287,52937],[-1,-120],[57,-74],[36,-156],[183,-279],[12,-241],[32,-96],[84,-139],[72,-225],[183,-148],[72,-119],[344,89],[102,165],[20,-7],[-111,-180],[-350,-89],[19,-333],[56,-224],[130,-201],[181,-181],[4,-48],[-116,-103],[41,-166],[77,-117],[153,-82],[103,-6],[114,-73],[74,-105],[-13,-127],[15,-129]],[[80860,49423],[-58,-9],[-689,-31],[-1146,-20],[-84,-374],[-288,-1196],[-84,-363]],[[78511,47430],[-3905,-82]],[[83422,45623],[-743,-2],[-272,-35],[-116,29],[-2347,-47]],[[79944,45568],[-20,669],[-11,192],[-22,819],[100,37],[-106,174],[-108,-5],[-1266,-24]],[[80860,49423],[77,-177],[162,-165],[346,-473],[78,-89],[183,-140],[230,-156],[121,-119],[43,-78],[25,-145],[-49,-247],[17,-141],[73,-218],[17,-156],[38,-26],[67,-146],[154,-166],[124,-212],[-9,-25],[149,-163],[102,-20],[238,-183],[52,-59],[209,-123],[104,-174],[11,-199]],[[74704,41585],[-10,-263],[14,-404],[30,0],[43,-1261]],[[74781,39657],[-506,-17],[-1144,-27]],[[73131,39613],[-18,526],[1,315],[-33,791],[-21,143],[-45,1275],[-31,802],[34,1],[-12,99],[-14,396],[-124,-4],[46,276],[4,174],[-24,745],[12,244],[107,2],[-46,477],[-35,-1],[-26,962],[7,0],[-15,475]],[[72898,47311],[515,11]],[[74514,47346],[34,-1029],[15,-86],[25,-757],[50,-1426],[-14,-278],[24,-631],[-12,-139],[35,-1025],[25,-185],[8,-205]],[[79944,45568],[12,-554],[26,-831],[73,-2466]],[[80055,41717],[-87,-4],[-2060,-49],[-1066,-23],[-2138,-56]],[[83422,45623],[0,-92],[108,-144],[69,-30],[130,-241],[104,-93],[60,-238],[158,-181],[105,-63],[90,-143],[110,-61],[221,-43],[108,-184],[-23,-142],[28,-140],[158,-240],[32,-126],[109,-195],[131,-201],[154,-155],[149,-101],[397,-294],[262,-226],[120,-12],[118,-61],[39,-102],[-101,-174],[38,-17],[-20,-90]],[[86276,41834],[-161,27],[-142,-54],[-240,25],[-281,-3],[-1319,-30],[-1428,-29],[-2518,-49],[-132,-4]],[[80188,37386],[-2324,-62],[47,-1444]],[[77911,35880],[-1071,-30],[-229,-30],[-593,-13],[-438,9],[-1,403],[-15,431],[-683,-18]],[[74881,36632],[4,25],[-104,3000]],[[80055,41717],[12,-297],[46,-1545],[6,-128],[45,-1620],[24,-741]],[[86276,41834],[-27,-251],[2,-125],[56,-391],[121,-312],[-35,-20],[192,-193],[188,-141],[90,-40],[161,-21],[193,51],[88,-3],[124,-42],[74,-58],[37,-107],[-65,-213],[-155,-88],[-195,-3],[-219,-50],[-112,-52],[-168,-141],[-60,-149],[-10,-282],[-71,-142],[86,-159],[144,-201],[63,-149],[147,-145],[361,-274],[-87,-23],[-235,-17],[7,-56],[88,-18],[-13,-135],[7,-200],[42,-176]],[[87095,37508],[-88,-15],[-367,-18],[-311,-3],[-108,-16],[-226,14],[-311,-29],[-239,-2],[-95,-27],[-172,3],[-92,109],[-122,32],[-131,0],[2,-66],[-2161,-38],[-309,-25],[-2177,-41]],[[87095,37508],[81,-247],[176,-411],[455,-268],[415,-190],[271,-88],[205,-48],[194,-18],[307,85],[172,798],[26,-6],[-176,-811],[-709,-190],[-429,-159],[38,-93],[-23,-28],[-259,-72],[-78,-42],[-119,-148],[-78,-251],[-4,-121],[57,-166],[113,-165],[-21,-44],[-91,-15],[229,-105],[155,-5],[151,28],[201,58],[37,67],[22,140],[-101,152],[-70,60],[-47,-20],[-35,88],[-138,167],[-3,159],[35,76],[112,35],[138,-35],[84,-159],[62,-30],[103,-110],[197,-165],[103,-110],[49,-8],[213,-147],[164,-186],[321,-458],[87,-43]],[[89687,34259],[-86,-62],[-4195,-85],[-1851,-34]],[[83555,34078],[-3269,-59],[57,-1843],[6,-80],[-1743,1361],[-634,501],[-61,1922]],[[95115,29369],[-229,-191],[-75,-20],[-310,-132],[-284,172],[-230,-117],[-9,-20],[-728,-492],[-113,-70],[-4071,-90],[-3642,-78],[-268,-1]],[[85156,28330],[-40,45],[-1746,1365]],[[83370,29740],[-359,281],[-261,195],[60,0],[71,399],[110,568],[301,4],[-23,706],[19,260],[243,3],[-21,479],[-16,549],[-83,0],[-3,100],[58,276],[89,518]],[[89687,34259],[38,-85],[155,-144],[157,-102],[245,-115],[82,-1],[29,-99],[15,-171],[56,-186],[176,-245],[44,-112],[192,-96],[148,-50],[95,-10],[85,41],[150,167],[31,-175],[-7,-122],[17,-336],[-59,-63],[-129,-30],[-62,-50],[-42,-118],[28,-110],[119,-128],[42,15],[79,-112],[-53,-38],[184,-167],[125,71],[214,-237],[-16,-71],[186,-109],[191,-160],[116,-63],[172,56],[128,-193],[58,-63],[446,-218],[651,-265],[200,-59],[176,-12],[174,13],[157,43],[257,130],[238,190],[62,32],[94,-21],[-148,133],[-473,-4],[7,11],[473,8],[35,-13],[244,-242],[57,-26],[117,-125],[-15,-103],[237,-240],[119,-7],[131,-128],[-283,-206],[-466,-308],[-51,-62]],[[82878,24421],[-1207,-28],[-22,-168],[-152,-780],[-205,-28],[-285,-1451],[82,2],[-97,-486],[70,2],[-119,-609],[-221,47],[7,-281]],[[80729,20641],[-337,96],[-202,78],[-202,96],[-432,234],[-6,121],[-53,41],[-252,126],[-222,0],[-647,351],[-9,253],[-337,157],[-395,145],[-283,89],[-160,38],[5,-112],[-1554,-37],[-190,231],[-626,715],[-1,15],[-444,458],[-206,199],[-89,63],[-149,146],[13,108],[36,16],[-133,210],[-126,271],[-45,204],[-51,116]],[[73632,25069],[-11,21],[-35,1043],[-127,40],[-314,132],[-125,-171],[-649,-26],[19,460],[2,497],[-13,481],[-93,-5],[4,432],[19,59]],[[72309,28032],[1188,25],[2680,71],[3082,79],[1146,31],[1988,37]],[[82393,28275],[-40,-204],[73,-18],[-32,-222],[-90,-459],[-48,-308],[132,2],[-72,-725],[-62,-1],[12,-193],[-9,-281],[28,-259],[34,-129],[102,-227],[457,-830]],[[85156,28330],[218,-157],[4596,-3591]],[[89970,24582],[-1062,-24],[-4103,-95],[-1927,-42]],[[82393,28275],[411,8],[-35,964],[-149,-3],[95,485],[655,11]],[[95115,29369],[-40,-142],[-61,-128],[66,-182],[106,-240],[128,-143],[60,-16],[430,5],[155,-17],[379,-144],[99,-50],[276,-105],[322,-143],[127,-74],[266,-112],[116,-35],[606,-267],[103,-68],[62,-293],[163,-1192],[11,-161],[48,-89],[84,-15],[1199,23],[5,-17],[-1298,-25],[-191,-57],[-2193,-45],[8,-136],[230,3],[2156,44],[81,-664],[16,-68],[54,-502],[72,-566],[-56,-207]],[[98704,23541],[-860,-401],[-1045,-511],[-514,-223],[-240,-137],[-232,-186],[-119,-120],[-82,-147],[-171,-677],[-37,-189],[6,-119]],[[95410,20831],[-606,-16]],[[94804,20815],[-468,373],[-377,276],[-755,588],[-2248,1760],[-986,770]],[[84823,20857],[163,-246]],[[84986,20611],[-1220,-28],[-641,-19],[-1603,-35],[-479,-18]],[[81043,20511],[-311,-4],[-3,134]],[[82878,24421],[199,-341],[280,-399],[102,-160],[233,-422],[786,-1431],[48,-100],[191,-503],[106,-208]],[[94804,20815],[-208,-16],[-402,-6],[-400,4],[-3755,-79],[-14,344],[-547,-77],[-159,-15],[-1562,-36],[-64,2],[-2376,-59],[-131,-13],[-363,-7]],[[81043,20511],[-138,-693],[-548,-2798],[-143,-759],[-644,-3280],[-370,-1892],[-31,-143],[7,-130]],[[79176,10816],[-212,-4]],[[78964,10812],[-2095,-38],[-2561,-52],[-2496,-52]],[[71812,10670],[-78,2067],[-69,1783]],[[71665,14520],[-72,1924],[2322,49],[-46,1228],[-51,1657],[-73,1921],[-31,961]],[[73714,22260],[-5,283],[-13,14],[-31,458],[-29,580],[-35,539],[76,2],[-23,598],[-50,247],[28,88]],[[81526,11035],[-220,-21],[-104,-30],[-280,-124],[-113,-16],[-1633,-28]],[[84986,20611],[421,-430],[23,-734],[49,-956],[15,-182],[3,-295],[17,-328],[-24,-254],[-45,-231],[-74,-212],[-115,-224],[-372,-10],[-8,-153],[-76,-197],[-110,-348],[-52,-41],[-290,-288],[-540,-567],[-202,-231],[-229,-290],[-160,-217],[-316,-536],[-108,-170],[-631,-1329],[-206,-416],[-382,-816],[-48,-121]],[[95410,20831],[48,-325],[66,-215],[-2,-82],[-43,-99],[-19,-118],[-41,-441],[35,-231],[148,-187],[26,-152],[33,-58],[-4,-270],[-74,-291],[-13,-170],[0,-392],[-13,-119],[-141,-292],[-86,-118],[-385,-337],[-139,-215],[0,-455],[62,-257],[-4,-333],[-56,-163],[505,3],[-256,-404],[-64,-165],[-12,-123],[62,-3871],[21,-727]],[[95064,10224],[5,-472],[61,-2063],[-42,-263],[-141,-365],[-116,-370],[-53,-340],[443,-2354],[-38,2],[-240,157],[-518,326],[-579,348],[-207,134],[-171,131],[-89,87],[-207,294],[-618,1008],[-212,334],[-57,-53],[-134,-50],[-184,-174],[-156,19],[-103,-95],[21,-2503],[-375,-10],[-2183,-10],[-1327,-4],[-1236,-11],[-222,4],[-338,48],[-234,65],[-335,120],[-304,55],[-455,17],[-112,-8]],[[84608,4228],[-272,332],[-388,494],[-98,46],[-1094,1376],[-228,293],[-606,759],[-94,129],[-110,184],[-91,200],[-66,206],[-48,324],[-38,1003],[-13,513],[-19,408],[8,236],[41,205],[34,99]],[[99936,12650],[-1375,-4],[2,-958],[22,-813],[-15,-149],[-294,-2],[1,-18],[-1156,-4],[-288,-9],[-589,-1],[8,-457],[-290,1],[-593,-13],[-305,1]],[[98704,23541],[-56,-171],[131,-83],[884,-131],[75,-31],[64,-83],[58,-1986],[17,-101],[5,-345],[-127,-100],[74,-70],[-29,-21],[-66,62],[-74,-131],[-34,-146],[-10,-216],[16,-148],[63,-133],[94,-115],[96,-16],[10,-154],[-258,-12],[-347,-114],[-152,-88],[-150,-125],[-93,-123],[-6,-85],[53,-169],[86,-128],[89,-192],[84,-112],[227,-191],[298,270],[14,-11],[-299,-270],[-469,-403],[291,-202],[124,-46],[107,-8],[81,86],[-24,54],[51,19],[75,-76],[124,-62],[198,-148],[-83,-20],[-96,49],[-58,77],[-112,53],[-150,-107],[109,-100],[110,81],[19,-24],[-107,-76],[73,-67],[122,87],[-37,-63],[32,-66],[85,-48],[-2,-140],[22,-1415],[3,-809],[-7,-1125],[3,-798],[11,-125]],[[77597,3839],[-336,-14],[53,126],[16,139],[-33,191],[-83,94],[-96,58],[-426,200],[-3,75],[-300,-7],[-125,-35],[-147,-3],[-79,-47],[-363,-114],[-39,-47],[-262,-195],[-288,-298],[-93,-85],[-139,-82],[-245,-197],[-13,-83],[-104,-38],[-70,28],[-187,-14],[-75,-68],[-86,-26],[-481,-46],[-307,6],[-544,80],[-445,17],[-151,-4],[-4,85],[-88,-1],[4,-86],[-799,-17],[-278,13],[-258,-42],[-68,1462],[1388,32],[-77,1929],[-3852,-90],[-815,5],[-73,1844],[4,63]],[[67230,8647],[-50,1414],[-24,510],[4656,99]],[[78964,10812],[-140,-756],[-62,-261],[-236,-1243],[-82,-344],[-135,-673],[-213,-1103],[-152,-723],[-90,-484],[-27,-262],[-92,-431],[-138,-693]],[[84608,4228],[327,-417],[721,-905],[940,-1191],[79,-109],[207,-337],[112,-259],[75,-206],[65,-246],[43,-245],[19,-218]],[[87196,95],[-1748,-10],[-905,-21],[-811,-9],[-801,-17],[-1212,-4],[-2604,-21],[-300,0],[-924,-13],[-14,804],[-5,701],[-193,25],[-548,132],[116,250],[176,473],[74,256],[61,258],[176,941],[-137,-1]],[[99936,12650],[3,-957],[0,-3845],[6,-3859],[2,-3838],[-1144,-1],[-1220,-14],[-3540,-23],[-3012,2],[-2720,-15],[-845,1],[-270,-6]],[[48432,45868],[6,-21],[28,-967],[-13,0],[61,-1651],[125,-3553]],[[48639,39676],[81,-2254],[8,-260]],[[48728,37162],[-199,1],[-975,-21],[-4659,-134],[-1,18],[-4599,-125],[-2899,-67],[-1871,-44]],[[33525,36790],[-91,1985],[-24,692],[-9,841],[1058,378],[614,18],[429,4],[485,15],[683,29],[1154,24],[315,0],[1946,54],[376,17],[1863,51],[491,5],[2268,48],[-47,1419],[-63,2051],[2007,713],[-39,1605],[1461,31]],[[54195,47841],[4,-405],[11,-83],[19,-468],[-16,-96],[108,-3179],[20,-142],[38,-920]],[[54379,42548],[-49,-213],[-53,-116],[-120,-158],[-116,-115],[-108,-41],[-954,-426],[-781,-391],[-97,-2],[3,-86],[-1154,-512],[13,-391],[-1755,-30],[10,-300],[17,-42],[-248,-41],[-348,-8]],[[61401,47081],[6,-314],[46,-1472],[66,-1864],[5,-206],[-132,1],[25,-726],[-4,-253]],[[61413,42247],[2,-44],[-2099,-39],[-226,-14],[-2,62],[-1612,-46],[-722,-11],[2,-70],[-858,-19],[-143,7],[-785,-22],[-236,-40],[-347,-17]],[[54387,41994],[-8,554]],[[60618,50198],[-12,-29],[33,-1178],[9,0],[-24,-485],[23,-471],[119,8],[65,-185],[118,-191],[-133,-91],[132,-160],[13,-349],[440,14]],[[68121,47207],[-923,-34],[-1524,-27],[-455,11],[-1571,-30],[-271,-8],[-1976,-38]],[[66129,51360],[205,-331],[66,-218],[166,-221],[120,-119],[170,-217],[224,-129],[410,-477],[297,-358],[16,-83],[-44,-563],[13,-252],[47,-347],[0,-110],[55,-538],[247,-190]],[[72898,47311],[-3965,-84],[-812,-20]],[[73131,39613],[-2267,-61],[-320,-3],[-2053,-47]],[[68491,39502],[-1999,-44],[-931,-22],[-2793,-51]],[[62768,39385],[-17,156],[-93,430],[-41,250],[-45,1414],[34,498],[-6,156],[-601,-3],[-72,-12],[-368,-6],[-146,-21]],[[54387,41994],[24,-824],[22,-33],[70,-1964],[37,-933],[-48,-3],[32,-961]],[[54524,37276],[-2357,-55],[-3439,-59]],[[62768,39385],[3,-98],[-135,-2],[-61,-1002],[9,-357],[-3,-476]],[[62581,37450],[-959,-19],[-277,9],[-1993,-48],[-2188,-54],[-2525,-59]],[[54639,37279],[-115,-3]],[[48728,37162],[2,-14],[137,-3842],[-1167,-26]],[[47700,33280],[-34,966],[-550,-20],[-4093,-110],[-305,-4],[-2095,-59],[-2457,-67],[-483,-9],[-1775,-43],[-559,-11],[-1704,-40],[7,134],[-29,726],[-37,578],[-6,287],[-55,1182]],[[54788,29674],[-174,47],[-155,65],[-389,199],[-164,93],[-1,-29],[-210,110],[-217,77],[-146,68],[-483,271],[-162,85],[-238,93],[31,-970],[16,-603],[-4,-175],[36,-393],[-537,-15],[-159,-10],[-1467,-35],[-223,-9],[-76,41],[-1017,-80],[0,32],[-607,-15],[-569,42]],[[47873,28563],[-12,372],[-47,1121],[-28,503],[-34,915],[-52,1806]],[[54639,37279],[-9,-110],[55,-1624],[11,-187],[-52,-1],[57,-1932],[45,-1150],[63,-1739],[-23,-4],[2,-858]],[[63015,29809],[-105,-2]],[[62910,29807],[-1114,-22],[-825,-23],[-11,-21],[-341,-4],[-329,10],[-151,-14],[-1405,-31],[-1226,-34],[-344,-17],[-39,14],[-799,-19],[-317,-19],[3,33],[-355,-8],[-174,-14],[-325,-7],[-370,43]],[[62581,37450],[131,2],[49,-1459],[55,-188],[67,-320],[-68,-781],[-1,-140],[60,1],[58,-958],[-87,-2],[32,-960],[63,2],[-21,-227],[2,-211],[26,-212],[-45,-311],[5,-241],[108,-1636]],[[68491,39502],[55,-1667],[71,-2225],[98,-2877],[92,-2797]],[[68807,29936],[-18,-29],[-758,-19],[-1152,-24],[-386,-10],[-446,-22],[-1010,-17],[1,40],[-1380,-27],[-643,-19]],[[74881,36632],[-169,-5],[27,-752],[83,-78],[-384,-8],[31,-807],[-6,-179],[41,-938],[-259,-6],[-48,-344],[-19,-618],[-523,-15],[14,-439],[-8,-43],[-280,-7],[24,-765],[-47,-179],[99,-48],[-41,-113],[27,-818],[-291,-7],[15,-482],[-691,-17],[-163,-10],[-10,-482],[-135,-4]],[[72168,29468],[-1000,-24],[-24,2],[-18,544],[-22,-10],[-525,-12],[-33,8],[-1739,-40]],[[72309,28032],[-93,-2],[-48,1438]],[[62910,29807],[48,-617],[14,-337],[52,-1551],[-6,-194],[25,1],[-2,-235],[13,-546],[27,-338],[33,-178],[62,-217],[109,-280],[75,-145],[193,-214],[191,-163],[553,-719],[53,-12],[2,-64],[-71,0]],[[64281,23998],[-2256,-49]],[[62025,23949],[-3100,-78],[-1381,-33],[-217,-8],[-1676,-37],[-1156,-33],[-2863,-71],[-288,-14],[-2655,-64],[-304,1],[-368,-12],[25,274],[2,346],[-113,2850],[-6,284],[-19,213],[-7,302],[-25,530],[-1,164]],[[73714,22260],[-388,5],[-2192,-50],[-31,15],[-11,272],[-182,-6],[-236,-84],[-193,-154],[-59,-78],[-110,17],[232,712],[103,302],[-314,-2],[-107,-23],[-396,-1],[-1955,-44],[-21,-8],[-542,-8],[-466,-18],[-223,-29],[-492,-13],[18,-489],[-666,-14]],[[65483,22562],[-250,272],[-952,1164]],[[65483,22562],[211,-355],[-16,-110],[57,-106],[888,-1801],[59,-29],[30,-262],[494,-1164],[265,-444],[320,-701],[563,-1204],[83,2],[-289,-877],[-345,-1069]],[[67803,14442],[-708,-14],[-3090,-88],[-1257,-32],[-401,5],[-481,-7],[-1841,-35]],[[60025,14271],[-1145,-21]],[[58880,14250],[-31,3],[-44,884],[-50,1285]],[[58755,16422],[1183,23],[-66,1682],[2155,40],[212,0],[-214,5782]],[[71665,14520],[-1091,-19],[-2431,-49],[-340,-10]],[[58880,14250],[79,-1907]],[[58959,12343],[-37,-25],[44,-938]],[[58966,11380],[-201,-25],[-686,-18],[22,-472],[-293,-5],[21,-495],[-1165,-27],[40,-955],[-1112,-14],[-48,-23],[-293,-8],[-10,220],[-46,-2],[-5,150],[44,1],[-28,597],[-950,-20],[-2827,-65],[-573,-18],[-545,-12],[-1157,-34],[-638,-12],[-85,1911],[802,49],[1430,37],[550,17],[1508,38],[359,-2],[-15,246],[-46,1041],[-40,828],[-7,257],[-46,1064],[-13,193],[-58,1502],[-18,656],[2046,46],[16,-482],[294,6],[54,-1432],[768,11],[1270,28],[308,3],[-14,230],[41,9],[1135,23]],[[67230,8647],[-1295,-37],[-126,-391],[-262,58],[106,326],[-2526,-66],[-253,-2],[-511,16],[-1081,-31],[78,203],[51,185],[18,252],[-49,1283],[-2371,-53],[-43,990]],[[58959,12343],[879,17],[-5,117],[262,23],[-70,1771]],[[24707,87163],[0,-142],[-1174,-27],[3,-239],[862,19],[0,-660],[311,6],[2,-299],[-1178,-30],[0,485],[-1182,-28],[-2,-619],[8,-358],[-4,-473],[545,16],[1812,45],[9,-1914]],[[25210,77186],[-146,-2],[-2152,-57],[-1234,-35],[-250,209],[-180,164],[-95,123],[-74,164],[-103,387],[-132,355],[14,198],[-60,109],[-79,339],[-122,399],[-190,327],[-33,106],[-3,197],[17,143],[162,381],[41,140],[1778,59],[-5,1070],[-2736,-77],[-41,36],[-81,149],[-46,208],[21,179],[129,195],[131,225],[301,636],[112,218],[34,114],[38,427],[47,175],[78,220],[45,255],[-2,76],[-49,193],[-13,206],[59,191],[106,230],[44,230],[-34,120],[-78,110],[-135,110],[-163,34],[-179,-35],[-207,-83],[-288,-182],[-84,-10],[-171,44],[-163,87],[-218,178],[-136,188],[-4498,-143],[1,-972],[-3,-972],[25,-2197],[-201,-24],[-524,64],[-4,-16],[-426,61],[0,-14],[-1106,157],[-628,-15],[17,-1919],[-2599,-58],[-2035,456],[6,-249],[-586,155],[-13,612],[-17,197],[-51,293],[-44,172],[-133,75],[-241,87],[-766,142],[0,37],[-518,59],[-1,-490],[8,-703],[-617,164],[-382,94],[-7,1099],[-486,82],[-559,104],[-322,53],[-48,1285],[-600,-3],[-2,536],[-484,-377],[-314,-299],[-379,0],[-20,3796],[-14,861],[-26,1356],[-11,828],[-23,883],[270,12],[34,190],[112,408],[131,329],[126,247],[130,220],[265,364],[179,195],[316,293],[692,564],[13,-508],[1167,19],[6,-321],[1174,27],[19,18],[-23,993],[1605,38],[-5,960],[110,5],[5,-651],[65,3],[3,-312],[403,3],[729,33],[143,11],[-7,972],[459,20],[804,-235],[0,-46],[769,-226],[193,-67],[281,-121],[338,-178],[0,59],[108,-54],[242,10],[-7,-792],[190,8],[-8,158],[83,3],[-10,158],[328,13],[452,-199],[-91,-100],[0,-145],[-946,-39],[0,-29],[-1162,-47],[-758,450],[-1,109],[-394,-16],[0,-109],[226,-36],[854,-510],[501,20],[-2,-268],[1070,-159],[515,-88],[14,10],[323,-58],[636,-136],[423,-103],[2,-44],[100,-27],[3,-819],[998,39],[837,-2525],[251,10],[4,-731],[235,-711],[-30,-1],[313,-947],[-512,-17],[2,-720],[1737,54],[0,-68],[183,6],[0,44],[82,2],[1,-69],[1307,42],[-1,118],[76,275],[103,173],[135,143],[169,121],[138,152],[218,291],[517,478],[93,169],[22,281],[-111,349],[-98,221],[-2,91],[66,352],[192,516],[-35,191],[-38,103],[240,-77],[232,-37],[446,-20],[335,-26],[251,-33],[2531,-404],[346,-59],[213,-25]],[[28,93087],[-28,709],[1184,31],[-280,-341],[-178,-270],[-698,-129]],[[1573,95028],[-30,-143],[-181,26],[21,-799],[99,3],[-97,-65],[-189,-210],[-21,634],[-36,1274],[407,7],[27,-727]],[[68051,93455],[76,-574],[-90,12],[1,-94],[37,-83],[-25,-222],[50,1],[28,-173],[-37,-5],[-14,-132],[96,-82],[-45,-327],[-4,-217],[21,-34],[14,-172],[-6,-447],[-18,-32],[152,-185],[340,-265],[290,-243],[278,-89],[116,260],[10,-2],[-203,-458],[-92,-304],[-26,-275],[12,-366],[30,-198],[89,-165],[-60,-71],[409,-342],[41,-82],[314,-23]]],"transform":{"scale":[1.14069220692207,1.3777850778507796],"translate":[1091130.77,1813891.8899999997]},"objects":{"ca":{"type":"GeometryCollection","geometries":[{"arcs":[[0,1,2]],"type":"Polygon","properties":{"area_numbe":1,"community":"ROGERS PARK"}},{"arcs":[[-2,3,4,5,6]],"type":"Polygon","properties":{"area_numbe":2,"community":"WEST RIDGE"}},{"arcs":[[7,8,9,10]],"type":"Polygon","properties":{"area_numbe":3,"community":"UPTOWN"}},{"arcs":[[-9,11,12,13,-5,14]],"type":"Polygon","properties":{"area_numbe":4,"community":"LINCOLN SQUARE"}},{"arcs":[[15,16,17,18,-12,19]],"type":"Polygon","properties":{"area_numbe":5,"community":"NORTH CENTER"}},{"arcs":[[20,21,-20,-8]],"type":"Polygon","properties":{"area_numbe":6,"community":"LAKE VIEW"}},{"arcs":[[22,23,24,25,-16,-22]],"type":"Polygon","properties":{"area_numbe":7,"community":"LINCOLN PARK"}},{"arcs":[[26,27,28,29,-24]],"type":"Polygon","properties":{"area_numbe":8,"community":"NEAR NORTH SIDE"}},{"arcs":[[30,31]],"type":"Polygon","properties":{"area_numbe":9,"community":"EDISON PARK"}},{"arcs":[[32,33,34,35,-31,36,37],[38]],"type":"Polygon","properties":{"area_numbe":10,"community":"NORWOOD PARK"}},{"arcs":[[39,40,-33,41]],"type":"Polygon","properties":{"area_numbe":11,"community":"JEFFERSON PARK"}},{"arcs":[[42,43,44,-42,-38,45]],"type":"Polygon","properties":{"area_numbe":12,"community":"FOREST GLEN"}},{"arcs":[[-14,46,-43,47,-6]],"type":"Polygon","properties":{"area_numbe":13,"community":"NORTH PARK"}},{"arcs":[[-13,48,-44,-47]],"type":"Polygon","properties":{"area_numbe":14,"community":"ALBANY PARK"}},{"arcs":[[-45,49,50,51,52,53,-40]],"type":"Polygon","properties":{"area_numbe":15,"community":"PORTAGE PARK"}},{"arcs":[[-19,54,55,-50,-49]],"type":"Polygon","properties":{"area_numbe":16,"community":"IRVING PARK"}},{"arcs":[[56,57,58,59,60,-53]],"type":"Polygon","properties":{"area_numbe":17,"community":"DUNNING"}},{"arcs":[[61,62,-58,63]],"type":"Polygon","properties":{"area_numbe":18,"community":"MONTCLARE"}},{"arcs":[[64,-64,-57,-52,65]],"type":"Polygon","properties":{"area_numbe":19,"community":"BELMONT CRAGIN"}},{"arcs":[[66,67,-66,-51,-56,68]],"type":"Polygon","properties":{"area_numbe":20,"community":"HERMOSA"}},{"arcs":[[69,-69,-55,-18]],"type":"Polygon","properties":{"area_numbe":21,"community":"AVONDALE"}},{"arcs":[[-26,70,71,-67,-70,-17]],"type":"Polygon","properties":{"area_numbe":22,"community":"LOGAN SQUARE"}},{"arcs":[[72,73,74,-68,-72,75]],"type":"Polygon","properties":{"area_numbe":23,"community":"HUMBOLDT PARK"}},{"arcs":[[-30,76,77,-76,-71,-25]],"type":"Polygon","properties":{"area_numbe":24,"community":"WEST TOWN"}},{"arcs":[[-65,-75,78,79,80,-62]],"type":"Polygon","properties":{"area_numbe":25,"community":"AUSTIN"}},{"arcs":[[81,-79,-74,82]],"type":"Polygon","properties":{"area_numbe":26,"community":"WEST GARFIELD PARK"}},{"arcs":[[-78,83,84,-83,-73]],"type":"Polygon","properties":{"area_numbe":27,"community":"EAST GARFIELD PARK"}},{"arcs":[[85,86,87,88,-84,-77,-29]],"type":"Polygon","properties":{"area_numbe":28,"community":"NEAR WEST SIDE"}},{"arcs":[[-85,-89,89,90,91,-80,-82]],"type":"Polygon","properties":{"area_numbe":29,"community":"NORTH LAWNDALE"}},{"arcs":[[92,93,94,95,-91,96]],"type":"Polygon","properties":{"area_numbe":30,"community":"SOUTH LAWNDALE"}},{"arcs":[[97,98,99,-97,-90,-88]],"type":"Polygon","properties":{"area_numbe":31,"community":"LOWER WEST SIDE"}},{"arcs":[[100,101,-86,-28]],"type":"Polygon","properties":{"area_numbe":32,"community":"LOOP"}},{"arcs":[[102,103,-87,-102,104]],"type":"Polygon","properties":{"area_numbe":33,"community":"NEAR SOUTH SIDE"}},{"arcs":[[105,106,107,108,-98,-104]],"type":"Polygon","properties":{"area_numbe":34,"community":"ARMOUR SQUARE"}},{"arcs":[[109,110,111,-106,-103]],"type":"Polygon","properties":{"area_numbe":35,"community":"DOUGLAS"}},{"arcs":[[112,113,-111,114]],"type":"Polygon","properties":{"area_numbe":36,"community":"OAKLAND"}},{"arcs":[[115,116,117,118,-108,119]],"type":"Polygon","properties":{"area_numbe":37,"community":"FULLER PARK"}},{"arcs":[[120,121,-120,-107,-112,-114]],"type":"Polygon","properties":{"area_numbe":38,"community":"GRAND BOULEVARD"}},{"arcs":[[122,123,-121,-113]],"type":"Polygon","properties":{"area_numbe":39,"community":"KENWOOD"}},{"arcs":[[124,125,126,-116,-122,127]],"type":"Polygon","properties":{"area_numbe":40,"community":"WASHINGTON PARK"}},{"arcs":[[128,129,-128,-124]],"type":"Polygon","properties":{"area_numbe":41,"community":"HYDE PARK"}},{"arcs":[[130,131,132,-125,-130]],"type":"Polygon","properties":{"area_numbe":42,"community":"WOODLAWN"}},{"arcs":[[133,134,135,-132,136]],"type":"Polygon","properties":{"area_numbe":43,"community":"SOUTH SHORE"}},{"arcs":[[137,138,139,140,141]],"type":"Polygon","properties":{"area_numbe":44,"community":"CHATHAM"}},{"arcs":[[142,143,-142,144,-135]],"type":"Polygon","properties":{"area_numbe":45,"community":"AVALON PARK"}},{"arcs":[[145,146,147,148,-143,-134]],"type":"Polygon","properties":{"area_numbe":46,"community":"SOUTH CHICAGO"}},{"arcs":[[149,150,151,-138,152]],"type":"Polygon","properties":{"area_numbe":47,"community":"BURNSIDE"}},{"arcs":[[153,-153,-144,-149]],"type":"Polygon","properties":{"area_numbe":48,"community":"CALUMET HEIGHTS"}},{"arcs":[[-152,154,155,156,157,158,159,-139]],"type":"Polygon","properties":{"area_numbe":49,"community":"ROSELAND"}},{"arcs":[[160,-155,-151,161]],"type":"Polygon","properties":{"area_numbe":50,"community":"PULLMAN"}},{"arcs":[[-148,162,163,164,-162,-150,-154]],"type":"Polygon","properties":{"area_numbe":51,"community":"SOUTH DEERING"}},{"arcs":[[165,-163,-147,166]],"type":"Polygon","properties":{"area_numbe":52,"community":"EAST SIDE"}},{"arcs":[[167,168,-157,169]],"type":"Polygon","properties":{"area_numbe":53,"community":"WEST PULLMAN"}},{"arcs":[[-165,170,171,-170,-156,-161]],"type":"Polygon","properties":{"area_numbe":54,"community":"RIVERDALE"}},{"arcs":[[172,-171,-164,-166]],"type":"Polygon","properties":{"area_numbe":55,"community":"HEGEWISCH"}},{"arcs":[[173,174,175,176,-95]],"type":"Polygon","properties":{"area_numbe":56,"community":"GARFIELD RIDGE"}},{"arcs":[[177,178,-174,-94]],"type":"Polygon","properties":{"area_numbe":57,"community":"ARCHER HEIGHTS"}},{"arcs":[[179,180,181,-178,-93,182]],"type":"Polygon","properties":{"area_numbe":58,"community":"BRIGHTON PARK"}},{"arcs":[[183,-183,-100,184]],"type":"Polygon","properties":{"area_numbe":59,"community":"MCKINLEY PARK"}},{"arcs":[[-119,185,-185,-99,-109]],"type":"Polygon","properties":{"area_numbe":60,"community":"BRIDGEPORT"}},{"arcs":[[186,187,188,-180,-184,-186,-118]],"type":"Polygon","properties":{"area_numbe":61,"community":"NEW CITY"}},{"arcs":[[189,190,-175,-179,-182]],"type":"Polygon","properties":{"area_numbe":62,"community":"WEST ELSDON"}},{"arcs":[[191,192,193,-190,-181,-189]],"type":"Polygon","properties":{"area_numbe":63,"community":"GAGE PARK"}},{"arcs":[[194,195,-176]],"type":"Polygon","properties":{"area_numbe":64,"community":"CLEARING"}},{"arcs":[[196,197,-195,-191,-194,198]],"type":"Polygon","properties":{"area_numbe":65,"community":"WEST LAWN"}},{"arcs":[[199,200,-199,-193,201]],"type":"Polygon","properties":{"area_numbe":66,"community":"CHICAGO LAWN"}},{"arcs":[[202,203,-202,-192,-188]],"type":"Polygon","properties":{"area_numbe":67,"community":"WEST ENGLEWOOD"}},{"arcs":[[204,205,-203,-187,-117,-127]],"type":"Polygon","properties":{"area_numbe":68,"community":"ENGLEWOOD"}},{"arcs":[[-133,-136,-145,-141,206,-205,-126]],"type":"Polygon","properties":{"area_numbe":69,"community":"GREATER GRAND CROSSING"}},{"arcs":[[-201,207,208,209,-197]],"type":"Polygon","properties":{"area_numbe":70,"community":"ASHBURN"}},{"arcs":[[-207,-140,-160,210,211,-208,-200,-204,-206]],"type":"Polygon","properties":{"area_numbe":71,"community":"AUBURN GRESHAM"}},{"arcs":[[-212,212,213,214,215,216,-209]],"type":"Polygon","properties":{"area_numbe":72,"community":"BEVERLY"}},{"arcs":[[-159,217,-213,-211]],"type":"Polygon","properties":{"area_numbe":73,"community":"WASHINGTON HEIGHTS"}},{"arcs":[[-216,218,219,220]],"type":"Polygon","properties":{"area_numbe":74,"community":"MOUNT GREENWOOD"}},{"arcs":[[-169,221,-220,222,-214,-218,-158]],"type":"Polygon","properties":{"area_numbe":75,"community":"MORGAN PARK"}},{"arcs":[[[-35,223,-60,224]],[[225]],[[226]]],"type":"MultiPolygon","properties":{"area_numbe":76,"community":"OHARE"}},{"arcs":[[227,-10,-15,-4,-1]],"type":"Polygon","properties":{"area_numbe":77,"community":"EDGEWATER"}}]}}}